STARLINK-31002          
1 58495U 23186Y   26068.03763987  .00002646  00000+0  10563-3 0  9991
2 58495  43.0003  67.5594 0000464 274.1731  85.9067 15.27578882125958
FLOCK 4G-1              
1 62666U 25009BK  26068.75951132  .00013534  00000+0  50654-3 0  9995
2 62666  97.4059 151.3158 0003180 323.1401  36.9619 15.27421081 63725
